PERSEUS-M1              
1 40039U 14033AF  26178.40596215  .00001878  00000+0  17421-3 0  9994
2 40039  97.9649 122.7056 0009818 262.8957  97.1147 14.95666560652167
POLYITAN-1              
1 40042U 14033AJ  26178.03640311  .00020395  00000+0  62898-3 0  9997
2 40042  98.0939 205.2302 0008864 114.7934 245.4230 15.33595602655105
TIGRISAT                
1 40043U 14033AK  26178.35657102  .00001846  00000+0  21693-3 0  9997
2 40043  97.7841 328.1357 0050082  42.6037 317.9046 14.85197362647132
AEROCUBE 6A             
1 40045U 14033AM  26178.44284610  .00004834  00000+0  40642-3 0  9994
2 40045  97.7226 345.2841 0038131 342.3120  17.6772 14.98192728648151
AEROCUBE 6B             
1 40046U 14033AN  26178.43518866  .00004856  00000+0  39316-3 0  9997
2 40046  97.7225 345.0895 0037716 333.4003  26.5284 14.99656739648297
CANX-4                  
1 40055U 14034C   26178.21686773  .00000942  00000+0  12806-3 0  9994
2 40055  98.3111  53.8976 0012394 345.1677  14.9169 14.81281845646018
CANX-5                  
1 40056U 14034D   26178.21518419  .00000937  00000+0  12736-3 0  9992
2 40056  98.3113  53.9400 0012391 345.4382  14.6471 14.81299077636824
UKUBE-1                 
1 40074U 14037F   26177.95219198  .00009082  00000+0  50852-3 0  9998
2 40074  98.4236 182.2506 0003059 116.7089 243.4453 15.13699275650039
BRITE-PL2 (HEWELIUSZ)   
1 40119U 14049B   26178.54934473  .00001631  00000+0  15572-3 0  9999
2 40119  97.9108 290.6296 0015327  76.8594 283.4336 14.94631287642996
AEROCUBE 5C             
1 40965U 15058B   26178.49683534  .00002089  00000+0  19166-3 0  9993
2 40965  64.7663 230.5166 0131270  59.2481 302.1481 14.91493336367192
AEROCUBE 7              
1 40966U 15058C   26178.53053779  .00003221  00000+0  26265-3 0  9998
2 40966  64.7607 212.4168 0120983  57.5936 303.6814 14.95782317367502
FOX-1A (AO-85)          
1 40967U 15058D   26178.48069744  .00002243  00000+0  20735-3 0  9991
2 40967  64.7747 246.9939 0131066  52.5906 308.7051 14.91011402115104
SINOD-D 1               
1 40968U 15058E   26178.50724583  .00003105  00000+0  25325-3 0  9992
2 40968  64.7738 226.5930 0119734  49.0073 312.1323 14.95962094118205
SNAP-3 ALICE            
1 40970U 15058G   26178.48656652  .00141197  00000+0  15169-2 0  9991
2 40970  64.7504  68.2684 0024605   5.0707 355.0685 15.62705712118499
LMRST-SAT               
1 40971U 15058H   26178.50572531  .00001944  00000+0  18287-3 0  9998
2 40971  64.7754 243.2739 0132678  54.6006 306.7414 14.90628082115095
SNAP-3 EDDIE            
1 40972U 15058J   26178.40443477  .00144171  00000+0  14788-2 0  9995
2 40972  64.7420  59.2008 0025236   8.5567 351.6005 15.63853462120624
PROPCUBE 3              
1 40973U 15058K   26178.51595409  .00002738  00000+0  23247-3 0  9994
2 40973  64.7670 220.2636 0124620  55.8399 305.4457 14.94306371116341
BISONSAT                
1 40974U 15058L   26178.25609196  .00016112  00000+0  76742-3 0  9994
2 40974  64.7571 141.0841 0080224  43.1893 317.5485 15.16443037117140
SNAP-3 JIMI             
1 40975U 15058M   26178.37396854  .00006192  00000+0  42414-3 0  9998
2 40975  64.7629 187.5396 0106706  51.2733 309.7864 15.02391842115752
PROPCUBE 1 (FLORA)      
1 40976U 15058N   26178.47012506  .00001945  00000+0  19020-3 0  9997
2 40976  64.7748 263.3656 0131312  56.9157 304.4481 14.89262146117791
SINOD-D 3               
1 40977U 15058P   26178.48235190  .00002767  00000+0  23883-3 0  9990
2 40977  64.7719 243.6697 0119843  54.0570 307.1590 14.94069970116290
HORYU-4                 
1 41340U 16012D   26178.22186065  .01206999  85800-3  12904-2 0  9994
2 41340  30.9822   4.7537 0008993 331.5188  28.4985 16.09051483572425
RAVAN                   
1 41849U 16067B   26177.95295976  .00056284  00000+0  81761-3 0  9991
2 41849  97.9878  68.6594 0002661 357.9218   2.2023 15.55621120529210
CELTEE 1                
1 41850U 16067C   26178.14936118  .00005347  00000+0  25348-3 0  9998
2 41850  98.0666  45.3961 0001496 128.5599 231.5768 15.19775634527398
OPTICUBE 04             
1 41851U 16067D   26178.55151170  .00002471  00000+0  15727-3 0  9996
2 41851  98.0691  31.3758 0016990  83.4505 276.8657 15.09700786526738
AEROCUBE 8D             
1 41852U 16067E   26178.46081119  .00008157  00000+0  33455-3 0  9997
2 41852  98.0675  49.4140 0005023  98.8593 261.3211 15.24536010527637
AEROCUBE 8C             
1 41853U 16067F   26177.89348963  .00008099  00000+0  32979-3 0  9992
2 41853  98.0548  46.0183 0006051  42.3441 317.8261 15.24778663527549
CORVUS BC2              
1 42846U 17042X   26178.42486138  .00002835  00000+0  19625-3 0  9991
2 42846  97.4069 339.3774 0014653  79.0317 281.2558 15.06357828488605
CORVUS BC1              
1 42847U 17042Y   26178.41834025  .00003033  00000+0  20887-3 0  9996
2 42847  97.4096 340.1918 0013035  57.8526 302.3965 15.06520512488637
MAKERSAT 0              
1 43016U 17073D   26178.17177366  .00018824  00000+0  50687-3 0  9995
2 43016  97.4619  60.7702 0104795 236.8226 122.2932 15.32414292467998
